BEIDOU 3 (C01)          
1 36287U 10001A   22089.52825750 -.00000300  00000+0  00000+0 0  9995
2 36287   1.9444  48.7455 0003458  15.2688  94.4182  1.00268327 44727
BEIDOU 5 (C06)          
1 36828U 10036A   22088.92396610 -.00000163  00000+0  00000+0 0  9992
2 36828  54.1907 176.9580 0027691 184.8469 266.6933  1.00269296 42787
BEIDOU 6 (C04)          
1 37210U 10057A   22089.30776869 -.00000132  00000+0  00000+0 0  9998
2 37210   1.0285  55.6157 0003352 144.4483 258.3824  1.00270772 41846
BEIDOU 7 (C07)          
1 37256U 10068A   22089.20773928 -.00000185  00000+0  00000+0 0  9990
2 37256  50.3521 290.5923 0018209 182.6572 257.8272  1.00274919 41351
BEIDOU 8 (C08)          
1 37384U 11013A   22088.69801248 -.00000176  00000+0  00000+0 0  9992
2 37384  60.1817  55.0459 0018679 195.2895 296.8510  1.00276748 40222
BEIDOU 9 (C09)          
1 37763U 11038A   22087.11910833 -.00000107  00000+0  00000+0 0  9991
2 37763  54.4752 179.4564 0091188 226.3226 274.0362  1.00252713 39187
BEIDOU 10 (C10)         
1 37948U 11073A   22089.51927404 -.00000139  00000+0  00000+0 0  9998
2 37948  50.4684 290.2208 0077048 217.6635 322.7409  1.00270672 37966
BEIDOU 11 (C05)         
1 38091U 12008A   22088.98816204  .00000038  00000+0  00000+0 0  9999
2 38091   1.3900  65.2432 0014906 322.6802 213.8881  1.00267962 37038
BEIDOU 12 (C11)         
1 38250U 12018A   22088.81217427 -.00000109  00000+0  00000+0 0  9991
2 38250  56.7141 356.1909 0022065 257.8039 196.8216  1.86234436 67605
BEIDOU 13 (C12)         
1 38251U 12018B   22089.46028404 -.00000109  00000+0  00000+0 0  9999
2 38251  56.6323 355.4991 0013142 265.0055 308.4026  1.86234268 67619
BEIDOU 15 (C14)         
1 38775U 12050B   22088.47031622  .00000050  00000+0  00000+0 0  9996
2 38775  55.3528 114.3763 0014846 318.0470 148.2205  1.86231343 64970
BEIDOU 16 (C02)         
1 38953U 12059A   22089.44524958 -.00000194  00000+0  00000+0 0  9990
2 38953   1.7941  84.5209 0013181 291.6689  55.9732  1.00270886 34601
BEIDOU 17 (C31)         
1 40549U 15019A   22089.59061847 -.00000150  00000+0  00000+0 0  9994
2 40549  52.0196 313.6695 0035482 188.5782 352.3619  1.00259307 25644
BEIDOU 18 (C57)         
1 40748U 15037A   22089.52914167 -.00000109  00000+0  00000+0 0  9994
2 40748  55.8874 354.4107 0005630   9.7301 159.3810  1.86233282 45449
BEIDOU 19 (C58)         
1 40749U 15037B   22088.30426758 -.00000108  00000+0  00000+0 0  9993
2 40749  55.8912 354.4423 0006646 334.2566 228.4915  1.86232253 45419
BEIDOU 20 (C18)         
1 40938U 15053A   22089.49910546 -.00000122  00000+0  00000+0 0  9991
2 40938  51.6229 276.7736 0044276 192.5834 353.5758  1.00264097 23903
BEIDOU IGSO-6 (C13)     
1 41434U 16021A   22089.30611766 -.00000137  00000+0  00000+0 0  9997
2 41434  57.9850  53.6484 0043345 220.0827 116.8824  1.00258097 22031
BEIDOU-2 G7 (C03)       
1 41586U 16037A   22088.92018920 -.00000373  00000+0  00000+0 0  9994
2 41586   1.8018  68.5413 0009190 359.6008 200.9631  1.00271155 21344
BEIDOU-3 M1 (C19)       
1 43001U 17069A   22088.82603985  .00000051  00000+0  00000+0 0  9996
2 43001  55.5064 114.3541 0011917 288.2050 212.7571  1.86231671 29919
BEIDOU-3 M2 (C20)       
1 43002U 17069B   22088.69212706  .00000051  00000+0  00000+0 0  9999
2 43002  55.5063 114.3941 0009696 305.3663 148.9475  1.86231444 29905
BEIDOU-3 M3 (C27)       
1 43107U 18003A   22088.61850907 -.00000110  00000+0  00000+0 0  9994
2 43107  55.3367 355.3944 0005419  41.5035 169.4870  1.86232496 28664
BEIDOU-3 M4 (C28)       
1 43108U 18003B   22089.52663356 -.00000111  00000+0  00000+0 0  9997
2 43108  55.3296 355.3526 0002883 278.3630 225.8136  1.86230919 28687
BEIDOU-3 M5 (C21)       
1 43207U 18018A   22088.68356913  .00000051  00000+0  00000+0 0  9999
2 43207  55.4657 114.4752 0007090 320.9398  39.0778  1.86231370 28054
BEIDOU-3 M6 (C22)       
1 43208U 18018B   22088.75019789  .00000051  00000+0  00000+0 0  9995
2 43208  55.4649 114.4781 0009916 296.7691  63.1983  1.86231673 28055
BEIDOU-3 M7 (C29)       
1 43245U 18029A   22089.24788852 -.00000108  00000+0  00000+0 0  9991
2 43245  55.2542 353.1464 0001439 357.3587 185.9682  1.86232564 27212
BEIDOU-3 M8 (C30)       
1 43246U 18029B   22088.62156005 -.00000108  00000+0  10000-3 0  9997
2 43246  55.2513 353.1978 0005403 357.3953 172.4754  1.86232768 27197
BEIDOU IGSO-7 (C16)     
1 43539U 18057A   22089.58985243 -.00000157  00000+0  00000+0 0  9992
2 43539  55.0723 176.4033 0046820 225.0638 110.0838  1.00281969 13717
BEIDOU-3 M9 (C23)       
1 43581U 18062A   22088.78315427 -.00000033  00000+0  00000+0 0  9990
2 43581  54.3020 234.8110 0001818 310.2122 178.7961  1.86231879 24948
BEIDOU-3 M10 (C24)      
1 43582U 18062B   22089.37312903 -.00000036  00000+0  00000+0 0  9996
2 43582  54.3020 234.7801 0005754  23.0056 233.2685  1.86232089 24958
BEIDOU-3 M11 (C25)      
1 43602U 18067A   22089.46646506 -.00000036  00000+0  00000+0 0  9993
2 43602  54.3826 233.3843 0007411  15.0096 345.3839  1.86231672 24451
BEIDOU-3 M12 (C26)      
1 43603U 18067B   22088.51438223 -.00000032  00000+0  00000+0 0  9990
2 43603  54.3801 233.3843 0004472   9.7603 342.6952  1.86231633 24445
BEIDOU-3 M13 (C32)      
1 43622U 18072A   22089.15334476  .00000050  00000+0  00000+0 0  9992
2 43622  55.4321 114.0177 0008565 283.4233 166.9395  1.86231571 23973
BEIDOU-3 M14 (C33)      
1 43623U 18072B   22088.61708554  .00000051  00000+0  00000+0 0  9996
2 43623  55.4337 114.0278 0006268 301.4630 239.5986  1.86231589 23964
BEIDOU-3 M15 (C34)      
1 43647U 18078A   22089.27078049 -.00000108  00000+0  10000-3 0  9999
2 43647  55.1480 353.3099 0007717   4.0784 150.7017  1.86232418 23489
BEIDOU-3 M16 (C35)      
1 43648U 18078B   22089.42938661 -.00000109  00000+0  00000+0 0  9998
2 43648  55.1447 353.3122 0005724   9.2464 159.8210  1.86232235 23503
BEIDOU-3 G1 (C59)       
1 43683U 18085A   22088.88222880 -.00000299  00000+0  00000+0 0  9993
2 43683   0.8413 180.1990 0002673 321.0247 143.6738  1.00269902 12607
BEIDOU-3 M17 (C36)      
1 43706U 18093A   22088.79205751 -.00000033  00000+0  00000+0 0  9992
2 43706  54.3836 234.6898 0007636 277.4776  82.3784  1.86231802 22853
BEIDOU-3 M18 (C37)      
1 43707U 18093B   22088.84685873 -.00000034  00000+0  00000+0 0  9997
2 43707  54.3847 234.6789 0006643 313.4481 174.2959  1.86232112 22845
BEIDOU-3 IGSO-1 (C38)   
1 44204U 19023A   22088.80732150 -.00000209  00000+0  00000+0 0  9995
2 44204  56.4461  53.8251 0020169 205.9818 337.1372  1.00281647 10913
BEIDOU-2 G8             
1 44231U 19027A   22089.17013594 -.00000269  00000+0  00000+0 0  9990
2 44231   0.6750  71.7248 0004367 134.3513 187.1083  1.00266808 10632
BEIDOU-3 IGSO-2 (C39)   
1 44337U 19035A   22089.58156424 -.00000157  00000+0  00000+0 0  9997
2 44337  55.1127 172.4266 0022904 192.9697 151.0556  1.00277240 10256
BEIDOU-3 M23 (C45)      
1 44542U 19061A   22088.19064498 -.00000028  00000+0  00000+0 0  9996
2 44542  54.6101 234.8367 0007676 349.3992  10.5299  1.86231140 17095
BEIDOU-3 M24 (C46)      
1 44543U 19061B   22088.92140963 -.00000033  00000+0  00000+0 0  9996
2 44543  54.6086 234.7813 0004924 349.5997  51.4752  1.86231679 17100
BEIDOU-3 IGSO-3         
1 44709U 19073A   22089.49354822 -.00000157  00000+0  00000+0 0  9994
2 44709  57.3925 297.2000 0020508 172.6105  15.1811  1.00280186  9017
BEIDOU-3 M21            
1 44793U 19078A   22088.62348594 -.00000108  00000+0  10000-3 0  9996
2 44793  54.9973 353.3658 0007610   6.1724  28.6581  1.86232228 15968
BEIDOU-3 M22            
1 44794U 19078B   22089.50961054 -.00000109  00000+0  00000+0 0  9993
2 44794  54.9719 353.3273 0005447   1.8320 178.6151  1.86232661 15971
BEIDOU-3 M19            
1 44864U 19090A   22088.54158519  .00000050  00000+0  00000+0 0  9996
2 44864  55.3664 114.2536 0018538 269.4221 176.5174  1.86231873 15545
BEIDOU-3 M20            
1 44865U 19090B   22088.81299378  .00000050  00000+0  00000+0 0  9996
2 44865  55.3690 114.2759 0016872 282.5348  75.2533  1.86231843 15515
BEIDOU-3 G2             
1 45344U 20017A   22089.01384101 -.00000163  00000+0  00000+0 0  9998
2 45344   2.1248 348.1972 0003138  81.6788 202.4937  1.00272539  7829
BEIDOU-3 G3             
1 45807U 20040A   22089.01994627 -.00000377  00000+0  00000+0 0  9995
2 45807   1.6246 301.2815 0007394 346.0183  17.8179  1.00271099  6641
